[{"OBJECT_NAME":"ONEWEB-0238","OBJECT_ID":"2021-045T","EPOCH":"2026-03-06T02:29:48.534144","MEAN_MOTION":13.15547168,"ECCENTRICITY":0.00019274,"INCLINATION":87.894,"RA_OF_ASC_NODE":279.7525,"ARG_OF_PERICENTER":81.2802,"MEAN_ANOMALY":278.8546,"EPHEMERIS_TYPE":0,"CLASSIFICATION_TYPE":"U","NORAD_CAT_ID":48784,"ELEMENT_SET_NO":999,"REV_AT_EPOCH":23082,"BSTAR":0.0001845604,"MEAN_MOTION_DOT":8.2e-7,"MEAN_MOTION_DDOT":0},{"OBJECT_NAME":"ONEWEB-0240","OBJECT_ID":"2021-045U","EPOCH":"2026-03-06T01:10:54.226272","MEAN_MOTION":13.15547375,"ECCENTRICITY":0.00018381,"INCLINATION":87.8952,"RA_OF_ASC_NODE":279.7647,"ARG_OF_PERICENTER":95.6811,"MEAN_ANOMALY":264.4529,"EPHEMERIS_TYPE":0,"CLASSIFICATION_TYPE":"U","NORAD_CAT_ID":48785,"ELEMENT_SET_NO":999,"REV_AT_EPOCH":23084,"BSTAR":0.00035759275,"MEAN_MOTION_DOT":1.47e-6,"MEAN_MOTION_DDOT":0},{"OBJECT_NAME":"ONEWEB-0246","OBJECT_ID":"2021-045V","EPOCH":"2026-03-06T01:02:54.142080","MEAN_MOTION":13.155476,"ECCENTRICITY":0.00014744,"INCLINATION":87.8953,"RA_OF_ASC_NODE":279.7754,"ARG_OF_PERICENTER":93.4803,"MEAN_ANOMALY":266.6496,"EPHEMERIS_TYPE":0,"CLASSIFICATION_TYPE":"U","NORAD_CAT_ID":48786,"ELEMENT_SET_NO":999,"REV_AT_EPOCH":23071,"BSTAR":0.00048544649,"MEAN_MOTION_DOT":1.96e-6,"MEAN_MOTION_DDOT":0},{"OBJECT_NAME":"ONEWEB-0210","OBJECT_ID":"2021-045W","EPOCH":"2026-03-06T00:26:23.448480","MEAN_MOTION":13.15547559,"ECCENTRICITY":0.00013552,"INCLINATION":87.8953,"RA_OF_ASC_NODE":279.7764,"ARG_OF_PERICENTER":126.4159,"MEAN_ANOMALY":233.7096,"EPHEMERIS_TYPE":0,"CLASSIFICATION_TYPE":"U","NORAD_CAT_ID":48787,"ELEMENT_SET_NO":999,"REV_AT_EPOCH":23075,"BSTAR":-0.00016747469,"MEAN_MOTION_DOT":-5.0e-7,"MEAN_MOTION_DDOT":0},{"OBJECT_NAME":"ONEWEB-0214","OBJECT_ID":"2021-045X","EPOCH":"2026-03-06T02:28:28.413696","MEAN_MOTION":13.15547408,"ECCENTRICITY":0.00012255,"INCLINATION":87.8951,"RA_OF_ASC_NODE":279.7562,"ARG_OF_PERICENTER":98.9187,"MEAN_ANOMALY":261.2082,"EPHEMERIS_TYPE":0,"CLASSIFICATION_TYPE":"U","NORAD_CAT_ID":48788,"ELEMENT_SET_NO":999,"REV_AT_EPOCH":23073,"BSTAR":-5.4157814e-5,"MEAN_MOTION_DOT":-8.0e-8,"MEAN_MOTION_DDOT":0},{"OBJECT_NAME":"ONEWEB-0221","OBJECT_ID":"2021-045Y","EPOCH":"2026-03-05T15:41:35.915424","MEAN_MOTION":13.15547539,"ECCENTRICITY":0.00016747,"INCLINATION":87.895,"RA_OF_ASC_NODE":279.8559,"ARG_OF_PERICENTER":95.5845,"MEAN_ANOMALY":264.5476,"EPHEMERIS_TYPE":0,"CLASSIFICATION_TYPE":"U","NORAD_CAT_ID":48789,"ELEMENT_SET_NO":999,"REV_AT_EPOCH":23076,"BSTAR":0.00037057213,"MEAN_MOTION_DOT":1.52e-6,"MEAN_MOTION_DDOT":0},{"OBJECT_NAME":"ONEWEB-0213","OBJECT_ID":"2021-045Z","EPOCH":"2026-03-06T02:22:45.649344","MEAN_MOTION":13.15548545,"ECCENTRICITY":0.00015599,"INCLINATION":87.8951,"RA_OF_ASC_NODE":279.771,"ARG_OF_PERICENTER":100.6892,"MEAN_ANOMALY":259.4414,"EPHEMERIS_TYPE":0,"CLASSIFICATION_TYPE":"U","NORAD_CAT_ID":48790,"ELEMENT_SET_NO":999,"REV_AT_EPOCH":23088,"BSTAR":9.6222049e-5,"MEAN_MOTION_DOT":4.9e-7,"MEAN_MOTION_DDOT":0},{"OBJECT_NAME":"ONEWEB-0212","OBJECT_ID":"2021-045AA","EPOCH":"2026-03-06T03:39:11.824416","MEAN_MOTION":13.15547528,"ECCENTRICITY":0.00016288,"INCLINATION":87.8952,"RA_OF_ASC_NODE":279.755,"ARG_OF_PERICENTER":87.0037,"MEAN_ANOMALY":273.128,"EPHEMERIS_TYPE":0,"CLASSIFICATION_TYPE":"U","NORAD_CAT_ID":48791,"ELEMENT_SET_NO":999,"REV_AT_EPOCH":23088,"BSTAR":-0.00030010684,"MEAN_MOTION_DOT":-1.0e-6,"MEAN_MOTION_DDOT":0},{"OBJECT_NAME":"ONEWEB-0227","OBJECT_ID":"2021-045AB","EPOCH":"2026-03-06T03:38:03.650496","MEAN_MOTION":13.15547491,"ECCENTRICITY":0.00016577,"INCLINATION":87.8946,"RA_OF_ASC_NODE":279.7582,"ARG_OF_PERICENTER":90.9779,"MEAN_ANOMALY":269.1541,"EPHEMERIS_TYPE":0,"CLASSIFICATION_TYPE":"U","NORAD_CAT_ID":48792,"ELEMENT_SET_NO":999,"REV_AT_EPOCH":23083,"BSTAR":-0.0003236358,"MEAN_MOTION_DOT":-1.09e-6,"MEAN_MOTION_DDOT":0},{"OBJECT_NAME":"ONEWEB-0226","OBJECT_ID":"2021-045AC","EPOCH":"2026-03-06T03:28:55.710336","MEAN_MOTION":13.1554807,"ECCENTRICITY":0.00014523,"INCLINATION":87.8944,"RA_OF_ASC_NODE":279.7681,"ARG_OF_PERICENTER":101.6494,"MEAN_ANOMALY":258.4799,"EPHEMERIS_TYPE":0,"CLASSIFICATION_TYPE":"U","NORAD_CAT_ID":48793,"ELEMENT_SET_NO":999,"REV_AT_EPOCH":23080,"BSTAR":-0.0001253697,"MEAN_MOTION_DOT":-3.4e-7,"MEAN_MOTION_DDOT":0},{"OBJECT_NAME":"ONEWEB-0224","OBJECT_ID":"2021-045AD","EPOCH":"2026-03-06T00:46:58.162368","MEAN_MOTION":13.15530852,"ECCENTRICITY":0.00025571,"INCLINATION":87.8933,"RA_OF_ASC_NODE":279.8263,"ARG_OF_PERICENTER":93.0712,"MEAN_ANOMALY":267.0711,"EPHEMERIS_TYPE":0,"CLASSIFICATION_TYPE":"U","NORAD_CAT_ID":48794,"ELEMENT_SET_NO":999,"REV_AT_EPOCH":23071,"BSTAR":-0.0042016845,"MEAN_MOTION_DOT":-1.568e-5,"MEAN_MOTION_DDOT":0},{"OBJECT_NAME":"ONEWEB-0233","OBJECT_ID":"2021-045AE","EPOCH":"2026-03-05T23:04:03.379008","MEAN_MOTION":13.15547465,"ECCENTRICITY":0.00017345,"INCLINATION":87.8937,"RA_OF_ASC_NODE":279.85,"ARG_OF_PERICENTER":96.4901,"MEAN_ANOMALY":263.6426,"EPHEMERIS_TYPE":0,"CLASSIFICATION_TYPE":"U","NORAD_CAT_ID":48795,"ELEMENT_SET_NO":999,"REV_AT_EPOCH":23072,"BSTAR":0.00029953784,"MEAN_MOTION_DOT":1.26e-6,"MEAN_MOTION_DDOT":0},{"OBJECT_NAME":"ONEWEB-0190","OBJECT_ID":"2021-045AF","EPOCH":"2026-03-06T02:25:02.603712","MEAN_MOTION":13.15548566,"ECCENTRICITY":0.00017846,"INCLINATION":87.894,"RA_OF_ASC_NODE":279.7826,"ARG_OF_PERICENTER":114.3306,"MEAN_ANOMALY":245.8011,"EPHEMERIS_TYPE":0,"CLASSIFICATION_TYPE":"U","NORAD_CAT_ID":48796,"ELEMENT_SET_NO":999,"REV_AT_EPOCH":23081,"BSTAR":6.5095649e-5,"MEAN_MOTION_DOT":3.7e-7,"MEAN_MOTION_DDOT":0},{"OBJECT_NAME":"ONEWEB-0236","OBJECT_ID":"2021-045AG","EPOCH":"2026-03-06T01:00:37.238688","MEAN_MOTION":13.1554748,"ECCENTRICITY":0.00016136,"INCLINATION":87.8935,"RA_OF_ASC_NODE":279.8063,"ARG_OF_PERICENTER":83.1986,"MEAN_ANOMALY":276.9328,"EPHEMERIS_TYPE":0,"CLASSIFICATION_TYPE":"U","NORAD_CAT_ID":48797,"ELEMENT_SET_NO":999,"REV_AT_EPOCH":23069,"BSTAR":0.00045544901,"MEAN_MOTION_DOT":1.84e-6,"MEAN_MOTION_DDOT":0},{"OBJECT_NAME":"ONEWEB-0248","OBJECT_ID":"2021-045AH","EPOCH":"2026-03-06T03:08:24.652896","MEAN_MOTION":13.15549946,"ECCENTRICITY":0.00019502,"INCLINATION":87.8951,"RA_OF_ASC_NODE":279.7613,"ARG_OF_PERICENTER":101.0139,"MEAN_ANOMALY":259.1211,"EPHEMERIS_TYPE":0,"CLASSIFICATION_TYPE":"U","NORAD_CAT_ID":48798,"ELEMENT_SET_NO":999,"REV_AT_EPOCH":23086,"BSTAR":0.00044117027,"MEAN_MOTION_DOT":1.79e-6,"MEAN_MOTION_DDOT":0},{"OBJECT_NAME":"ONEWEB-0225","OBJECT_ID":"2021-045AJ","EPOCH":"2026-03-06T01:50:48.887808","MEAN_MOTION":13.15547505,"ECCENTRICITY":0.00018061,"INCLINATION":87.8944,"RA_OF_ASC_NODE":279.7886,"ARG_OF_PERICENTER":110.7306,"MEAN_ANOMALY":249.4018,"EPHEMERIS_TYPE":0,"CLASSIFICATION_TYPE":"U","NORAD_CAT_ID":48799,"ELEMENT_SET_NO":999,"REV_AT_EPOCH":23086,"BSTAR":-0.00027725872,"MEAN_MOTION_DOT":-9.2e-7,"MEAN_MOTION_DDOT":0}]
