ONEWEB-0238             
1 48784U 21045T   26065.10403396  .00000082  00000+0  18456-3 0  9994
2 48784  87.8940 279.7525 0001927  81.2802 278.8546 13.15547168230822
ONEWEB-0240             
1 48785U 21045U   26065.04923873  .00000147  00000+0  35759-3 0  9992
2 48785  87.8952 279.7647 0001838  95.6811 264.4529 13.15547375230845
ONEWEB-0246             
1 48786U 21045V   26065.04368220  .00000196  00000+0  48545-3 0  9993
2 48786  87.8953 279.7754 0001474  93.4803 266.6496 13.15547600230713
ONEWEB-0210             
1 48787U 21045W   26065.01832695 -.00000050  00000+0 -16747-3 0  9993
2 48787  87.8953 279.7764 0001355 126.4159 233.7096 13.15547559230752
ONEWEB-0214             
1 48788U 21045X   26065.10310664 -.00000008  00000+0 -54158-4 0  9993
2 48788  87.8951 279.7562 0001225  98.9187 261.2082 13.15547408230739
ONEWEB-0221             
1 48789U 21045Y   26064.65388791  .00000152  00000+0  37057-3 0  9995
2 48789  87.8950 279.8559 0001674  95.5845 264.5476 13.15547539230769
ONEWEB-0213             
1 48790U 21045Z   26065.09913946  .00000049  00000+0  96222-4 0  9997
2 48790  87.8951 279.7710 0001559 100.6892 259.4414 13.15548545230888
ONEWEB-0212             
1 48791U 21045AA  26065.15222019 -.00000100  00000+0 -30011-3 0  9992
2 48791  87.8952 279.7550 0001628  87.0037 273.1280 13.15547528230882
ONEWEB-0227             
1 48792U 21045AB  26065.15143114 -.00000109  00000+0 -32364-3 0  9993
2 48792  87.8946 279.7582 0001657  90.9779 269.1541 13.15547491230838
ONEWEB-0226             
1 48793U 21045AC  26065.14508924 -.00000034  00000+0 -12537-3 0  9994
2 48793  87.8944 279.7681 0001452 101.6494 258.4799 13.15548070230801
ONEWEB-0224             
1 48794U 21045AD  26065.03261762 -.00001568  00000+0 -42017-2 0  9997
2 48794  87.8933 279.8263 0002557  93.0712 267.0711 13.15530852230710
ONEWEB-0233             
1 48795U 21045AE  26064.96115022  .00000126  00000+0  29954-3 0  9999
2 48795  87.8937 279.8500 0001734  96.4901 263.6426 13.15547465230726
ONEWEB-0190             
1 48796U 21045AF  26065.10072458  .00000037  00000+0  65096-4 0  9991
2 48796  87.8940 279.7826 0001784 114.3306 245.8011 13.15548566230810
ONEWEB-0236             
1 48797U 21045AG  26065.04209767  .00000184  00000+0  45545-3 0  9999
2 48797  87.8935 279.8063 0001613  83.1986 276.9328 13.15547480230693
ONEWEB-0248             
1 48798U 21045AH  26065.13084089  .00000179  00000+0  44117-3 0  9996
2 48798  87.8951 279.7613 0001950 101.0139 259.1211 13.15549946230868
ONEWEB-0225             
1 48799U 21045AJ  26065.07695472 -.00000092  00000+0 -27726-3 0  9997
2 48799  87.8944 279.7886 0001806 110.7306 249.4018 13.15547505230862
